NORAD_CAT_ID,OBJECT_NAME,OBJECT_TYPE,EPOCH,MEAN_MOTION,ECCENTRICITY,INCLINATION,RA_OF_ASC_NODE,ARG_OF_PERICENTER,MEAN_ANOMALY,BSTAR,MEAN_MOTION_DOT,MEAN_MOTION_DDOT,TLE_LINE0,TLE_LINE1,TLE_LINE2,SEMIMAJOR_AXIS,PERIOD,APOGEE,PERIGEE,DECAYED
52661.0,STARLINK-4042,PAYLOAD,2024-02-13 09:56:58,15.08844455,0.0001483,53.2173,304.6877,94.8628,265.2533,-4.404e-05,-9.89e-06,0.0,0 STARLINK-4042,1 52661U 22053F   24044.41456856 -.00000989  00000-0 -44040-4 0  9999,2 52661  53.2173 304.6877 0001483  94.8628 265.2533 15.08844455 97029,6917.867,95.437,540.758,538.706,0.0
52661.0,STARLINK-4042,PAYLOAD,2024-02-13 17:53:54,15.08837825,0.0001644,53.2183,303.2035,106.3206,253.7967,7.3927e-06,-1.7e-06,0.0,0 STARLINK-4042,1 52661U 22053F   24044.74577489 -.00000170  00000-0  73927-5 0  9999,2 52661  53.2183 303.2035 0001644 106.3206 253.7967 15.08837825 97072,6917.887,95.438,540.889,538.615,0.0
52661.0,STARLINK-4042,PAYLOAD,2024-02-13 22:40:04,15.08841721,0.0001611,53.2182,302.3128,103.8424,256.2748,8.5137e-05,1.067e-05,0.0,0 STARLINK-4042,1 52661U 22053F   24044.94449337  .00001067  00000-0  85137-4 0  9991,2 52661  53.2182 302.3128 0001611 103.8424 256.2748 15.08841721 97101,6917.875,95.437,540.855,538.626,0.0
52661.0,STARLINK-4042,PAYLOAD,2024-02-14 09:47:45,15.08842459,0.0001245,53.2164,300.2222,88.8956,271.2178,4.8876e-05,4.9e-06,0.0,0 STARLINK-4042,1 52661U 22053F   24045.40816994  .00000490  00000-0  48876-4 0  9998,2 52661  53.2164 300.2222 0001245  88.8956 271.2178 15.08842459 97178,6917.873,95.437,540.599,538.877,0.0
52661.0,STARLINK-4042,PAYLOAD,2024-02-14 22:30:51,15.08842546,0.0001389,53.2158,297.8445,96.4364,263.6786,0.00010272,1.347e-05,0.0,0 STARLINK-4042,1 52661U 22053F   24045.93809301  .00001347  00000-0  10272-3 0  9990,2 52661  53.2158 297.8445 0001389  96.4364 263.6786 15.08842546 97252,6917.873,95.437,540.698,538.777,0.0
52661.0,STARLINK-4042,PAYLOAD,2024-02-15 01:41:37,15.08850041,0.0001552,53.217,297.2515,99.8843,260.2324,0.00024426,3.603e-05,0.0,0 STARLINK-4042,1 52661U 22053F   24046.07056981  .00003603  00000-0  24426-3 0  9997,2 52661  53.2170 297.2515 0001552  99.8843 260.2324 15.08850041 97271,6917.85,95.437,540.788,538.641,0.0
52661.0,STARLINK-4042,PAYLOAD,2024-02-15 22:21:38,15.08838656,0.0001964,53.2167,293.3862,133.2715,226.8441,-1.0772e-05,-4.6e-06,0.0,0 STARLINK-4042,1 52661U 22053F   24046.93169503 -.00000460  00000-0 -10772-4 0  9997,2 52661  53.2167 293.3862 0001964 133.2715 226.8441 15.08838656 97408,6917.884,95.438,541.108,538.391,0.0
52661.0,STARLINK-4042,PAYLOAD,2024-02-16 01:32:24,15.0884056,0.0001315,53.2159,292.7903,93.6516,266.4627,9.2601e-05,1.186e-05,0.0,0 STARLINK-4042,1 52661U 22053F   24047.06417602  .00001186  00000-0  92601-4 0  9993,2 52661  53.2159 292.7903 0001315  93.6516 266.4627 15.08840560 97421,6917.879,95.438,540.653,538.834,0.0
52661.0,STARLINK-4042,PAYLOAD,2024-02-16 09:29:20,15.08834925,0.0001337,53.2157,291.3039,89.4094,270.7051,1.5287e-05,-4.5e-07,0.0,0 STARLINK-4042,1 52661U 22053F   24047.39537945 -.00000045  00000-0  15287-4 0  9991,2 52661  53.2157 291.3039 0001337  89.4094 270.7051 15.08834925 97474,6917.896,95.438,540.686,538.836,0.0
52661.0,STARLINK-4042,PAYLOAD,2024-02-16 22:12:25,15.08838272,0.0001389,53.216,288.9246,93.4649,266.6502,8.9649e-05,1.139e-05,0.0,0 STARLINK-4042,1 52661U 22053F   24047.92529912  .00001139  00000-0  89649-4 0  9992,2 52661  53.2160 288.9246 0001389  93.4649 266.6502 15.08838272 97551,6917.886,95.438,540.712,538.79,0.0
52661.0,STARLINK-4042,PAYLOAD,2024-02-17 09:20:07,15.08843684,0.0001396,53.2156,286.8436,88.5286,271.5866,0.00027106,4.029e-05,0.0,0 STARLINK-4042,1 52661U 22053F   24048.38897928  .00004029  00000-0  27106-3 0  9998,2 52661  53.2156 286.8436 0001396  88.5286 271.5866 15.08843684 97623,6917.869,95.437,540.7,538.768,0.0
52661.0,STARLINK-4042,PAYLOAD,2024-02-17 22:03:12,15.08847163,0.0001227,53.2149,284.4631,102.879,257.2339,0.00026216,3.888e-05,0.0,0 STARLINK-4042,1 52661U 22053F   24048.91889838  .00003888  00000-0  26216-3 0  9991,2 52661  53.2149 284.4631 0001227 102.8790 257.2339 15.08847163 97700,6917.858,95.437,540.572,538.875,0.0
52661.0,STARLINK-4042,PAYLOAD,2024-02-18 09:10:54,15.08847579,0.000124,53.2148,282.3809,103.5143,256.5987,0.00022645,3.319e-05,0.0,0 STARLINK-4042,1 52661U 22053F   24049.38257695  .00003319  00000-0  22645-3 0  9994,2 52661  53.2148 282.3809 0001240 103.5143 256.5987 15.08847579 97777,6917.857,95.437,540.58,538.864,0.0
52661.0,STARLINK-4042,PAYLOAD,2024-02-18 20:18:36,15.08848385,0.0001411,53.216,280.2986,102.4807,257.6343,0.00018565,2.669e-05,0.0,0 STARLINK-4042,1 52661U 22053F   24049.84625517  .00002669  00000-0  18565-3 0  9990,2 52661  53.2160 280.2986 0001411 102.4807 257.6343 15.08848385 97841,6917.855,95.437,540.696,538.744,0.0
52661.0,STARLINK-4042,PAYLOAD,2024-02-18 21:53:59,15.08851893,0.0001224,53.2163,280.0051,91.1069,269.0064,0.00016858,2.397e-05,0.0,0 STARLINK-4042,1 52661U 22053F   24049.91249341  .00002397  00000-0  16858-3 0  9996,2 52661  53.2163 280.0051 0001224  91.1069 269.0064 15.08851893 97857,6917.844,95.437,540.556,538.862,0.0
52661.0,STARLINK-4042,PAYLOAD,2024-02-19 01:04:45,15.08866363,0.0001714,53.2168,279.4092,70.7091,289.4087,0.00035934,5.44e-05,0.0,0 STARLINK-4042,1 52661U 22053F   24050.04496580  .00005440  00000-0  35934-3 0  9999,2 52661  53.2168 279.4092 0001714  70.7091 289.4087 15.08866363 97872,6917.8,95.436,540.851,538.479,0.0
52661.0,STARLINK-4042,PAYLOAD,2024-02-19 20:09:23,15.08837734,0.0001449,53.2164,275.8394,103.5391,256.5762,-2.3538e-05,-6.63e-06,0.0,0 STARLINK-4042,1 52661U 22053F   24050.83986003 -.00000663  00000-0 -23538-4 0  9992,2 52661  53.2164 275.8394 0001449 103.5391 256.5762 15.08837734 97994,6917.887,95.438,540.755,538.75,0.0
52661.0,STARLINK-4042,PAYLOAD,2024-02-19 21:44:48,15.08798729,0.000142,53.2175,275.5448,89.0951,271.0204,-0.00065455,-0.00010678,0.0,0 STARLINK-4042,1 52661U 22053F   24050.90611901 -.00010678  00000-0 -65455-3 0  9992,2 52661  53.2175 275.5448 0001420  89.0951 271.0204 15.08798729 98008,6918.007,95.44,540.854,538.889,0.0
52661.0,STARLINK-4042,PAYLOAD,2024-02-20 07:17:05,15.08837719,0.0001298,53.2172,273.7594,91.6138,268.5003,-5.0181e-05,-1.086e-05,0.0,0 STARLINK-4042,1 52661U 22053F   24051.30354076 -.00001086  00000-0 -50181-4 0  9998,2 52661  53.2172 273.7594 0001298  91.6138 268.5003 15.08837719 98063,6917.887,95.438,540.65,538.854,0.0
52661.0,STARLINK-4042,PAYLOAD,2024-02-20 21:35:33,15.08863779,0.0001647,53.2171,271.0841,96.9674,263.1506,0.00045656,6.99e-05,0.0,0 STARLINK-4042,1 52661U 22053F   24051.89969091  .00006990  00000-0  45656-3 0  9998,2 52661  53.2171 271.0841 0001647  96.9674 263.1506 15.08863779 98153,6917.808,95.436,540.812,538.533,0.0
52661.0,STARLINK-4042,PAYLOAD,2024-02-21 00:46:21,15.08829029,0.0001405,53.217,270.4893,81.6473,278.4678,1.1494e-05,-1.05e-06,0.0,0 STARLINK-4042,1 52661U 22053F   24052.03218801 -.00000105  00000-0  11494-4 0  9998,2 52661  53.2170 270.4893 0001405  81.6473 278.4678 15.08829029 98173,6917.914,95.438,540.751,538.807,0.0
52661.0,STARLINK-4042,PAYLOAD,2024-02-21 19:50:58,15.08839138,0.0001279,53.2151,266.9188,90.5481,269.5658,0.00017339,2.473e-05,0.0,0 STARLINK-4042,1 52661U 22053F   24052.82706416  .00002473  00000-0  17339-3 0  9991,2 52661  53.2151 266.9188 0001279  90.5481 269.5658 15.08839138 98290,6917.883,95.438,540.633,538.863,0.0
52661.0,STARLINK-4042,PAYLOAD,2024-02-21 21:26:21,15.08840392,0.0001356,53.2154,266.6236,99.5028,260.6117,0.00019318,2.788e-05,0.0,0 STARLINK-4042,1 52661U 22053F   24052.89330328  .00002788  00000-0  19318-3 0  9991,2 52661  53.2154 266.6236 0001356  99.5028 260.6117 15.08840392 98304,6917.879,95.438,540.682,538.806,0.0
52661.0,STARLINK-4042,PAYLOAD,2024-02-22 06:58:40,15.08836794,0.000165,53.2152,264.8379,92.4622,267.6559,7.4864e-05,9.04e-06,0.0,0 STARLINK-4042,1 52661U 22053F   24053.29074616  .00000904  00000-0  74864-4 0  9997,2 52661  53.2152 264.8379 0001650  92.4622 267.6559 15.08836794 98363,6917.89,95.438,540.897,538.614,0.0
52661.0,STARLINK-4042,PAYLOAD,2024-02-22 21:17:08,15.08845134,0.0001294,53.2157,262.16,102.724,257.3897,7.6384e-05,9.28e-06,0.0,0 STARLINK-4042,1 52661U 22053F   24053.88690264  .00000928  00000-0  76384-4 0  9990,2 52661  53.2157 262.1600 0001294 102.7240 257.3897 15.08845134 98450,6917.865,95.437,540.625,538.835,0.0
52661.0,STARLINK-4042,PAYLOAD,2024-02-23 13:11:00,15.08840631,0.0001428,53.2161,259.1908,94.8776,265.2379,8.8734e-05,1.125e-05,0.0,0 STARLINK-4042,1 52661U 22053F   24054.54930583  .00001125  00000-0  88734-4 0  9997,2 52661  53.2161 259.1908 0001428  94.8776 265.2379 15.08840631 98557,6917.878,95.438,540.731,538.756,0.0
52661.0,STARLINK-4042,PAYLOAD,2024-02-23 19:32:32,15.08838883,0.0001366,53.216,257.9977,87.1398,272.975,-1.867e-05,-5.85e-06,0.0,0 STARLINK-4042,1 52661U 22053F   24054.81426983 -.00000585  00000-0 -18670-4 0  9994,2 52661  53.2160 257.9977 0001366  87.1398 272.9750 15.08838883 98592,6917.884,95.438,540.694,538.804,0.0
52661.0,STARLINK-4042,PAYLOAD,2024-02-23 21:07:56,15.08838804,0.0001345,53.2159,257.7005,87.1967,272.9179,-1.9319e-05,-5.95e-06,0.0,0 STARLINK-4042,1 52661U 22053F   24054.88050948 -.00000595  00000-0 -19319-4 0  9997,2 52661  53.2159 257.7005 0001345  87.1967 272.9179 15.08838804 98609,6917.884,95.438,540.68,538.819,0.0
52661.0,STARLINK-4042,PAYLOAD,2024-02-24 06:40:14,15.08845147,0.0001455,53.2168,255.9177,89.347,270.7689,1.0423e-05,-1.22e-06,0.0,0 STARLINK-4042,1 52661U 22053F   24055.27794506 -.00000122  00000-0  10423-4 0  9998,2 52661  53.2168 255.9177 0001455  89.3470 270.7689 15.08845147 98660,6917.865,95.437,540.736,538.723,0.0
52661.0,STARLINK-4042,PAYLOAD,2024-02-24 13:01:47,15.0884124,0.0001695,53.2166,254.7282,79.5024,280.6159,0.00012206,1.655e-05,0.0,0 STARLINK-4042,1 52661U 22053F   24055.54290680  .00001655  00000-0  12206-3 0  9993,2 52661  53.2166 254.7282 0001695  79.5024 280.6159 15.08841240 98701,6917.877,95.437,540.914,538.569,0.0
